GLOBAL-2                
1 43812U 18099BG  26192.61411174  .00001373  00000+0  91054-4 0  9996
2 43812  97.3549 228.1117 0007627  76.9899 283.2181 15.08814097415591
GLOBAL-14               
1 49469U 21106A   26192.23120222  .00016564  00000+0  27425-3 0  9990
2 49469  42.0023 148.0639 0017084 197.5247 162.5010 15.51690431261864
GLOBAL-12               
1 49772U 21115BA  26191.60722478  .00027333  00000+0  40417-3 0  9990
2 49772  53.1957 291.8070 0002676  67.4277 292.7018 15.55134134259548
GLOBAL-13               
1 49773U 21115BB  26192.61248647  .00011770  00000+0  23739-3 0  9990
2 49773  53.1984 298.3929 0000994 153.6296 206.4764 15.47016684259544
GLOBAL-16               
1 49950U 21120B   26192.63961317  .00015125  00000+0  25460-3 0  9992
2 49950  41.9948 267.6481 0011712  52.1360 308.0542 15.51370265258649
GLOBAL-18               
1 52196U 22034B   26191.25869793  .00015344  00000+0  30602-3 0  9992
2 52196  52.9800 146.3065 0004308  11.3992 348.7110 15.47079635240539
GLOBAL-19               
1 55982U 23041B   26190.95267241  .00009716  00000+0  25562-3 0  9998
2 55982  42.0016  69.0757 0008779 183.2971 176.7812 15.38589343185432
GLOBAL-5                
1 55983U 23041C   26192.02399169  .00008451  00000+0  22309-3 0  9995
2 55983  42.0016  62.3503 0007823 186.5979 173.4759 15.38622864185600
